NORAD_CAT_ID,OBJECT_NAME,OBJECT_TYPE,EPOCH,MEAN_MOTION,ECCENTRICITY,INCLINATION,RA_OF_ASC_NODE,ARG_OF_PERICENTER,MEAN_ANOMALY,BSTAR,MEAN_MOTION_DOT,MEAN_MOTION_DDOT,TLE_LINE0,TLE_LINE1,TLE_LINE2,SEMIMAJOR_AXIS,PERIOD,APOGEE,PERIGEE,DECAYED
52643.0,STARLINK-3963,PAYLOAD,2023-09-13 19:51:23,15.08862618,0.0001327,53.2199,14.6426,100.4898,259.6244,0.00019399,2.803e-05,0.0,0 STARLINK-3963,1 52643U 22052AX  23256.82735109  .00002803  00000-0  19399-3 0  9991,2 52643  53.2199  14.6426 0001327 100.4898 259.6244 15.08862618 74072,6917.811,95.436,540.594,538.758,0.0
52643.0,STARLINK-3963,PAYLOAD,2023-09-14 00:37:35,15.08823305,0.000201,53.2207,13.7511,78.5059,281.6159,-0.00014951,-2.666e-05,0.0,0 STARLINK-3963,1 52643U 22052AX  23257.02610747 -.00002666  00000-0 -14951-3 0  9992,2 52643  53.2207  13.7511 0002010  78.5059 281.6159 15.08823305 74486,6917.931,95.439,541.187,538.406,0.0
52643.0,STARLINK-3963,PAYLOAD,2023-09-14 13:20:41,15.08818924,0.0001406,53.2198,11.3761,87.3832,272.7321,-0.00020297,-3.515e-05,0.0,0 STARLINK-3963,1 52643U 22052AX  23257.55603709 -.00003515  00000-0 -20297-3 0  9994,2 52643  53.2198  11.3761 0001406  87.3832 272.7321 15.08818924 74181,6917.945,95.439,540.782,538.837,0.0
52643.0,STARLINK-3963,PAYLOAD,2023-09-14 18:06:50,15.08825545,0.0001357,53.2195,10.4832,84.4369,275.6778,-0.00012695,-2.307e-05,0.0,0 STARLINK-3963,1 52643U 22052AX  23257.75475254 -.00002307  00000-0 -12695-3 0  9999,2 52643  53.2195  10.4832 0001357  84.4369 275.6778 15.08825545 74214,6917.925,95.438,540.728,538.851,0.0
52643.0,STARLINK-3963,PAYLOAD,2023-09-15 00:28:22,15.0883579,0.0001369,53.2194,9.2941,72.8327,287.2815,-0.00011559,-2.127e-05,0.0,0 STARLINK-3963,1 52643U 22052AX  23258.01970720 -.00002127  00000-0 -11559-3 0  9995,2 52643  53.2194   9.2941 0001369  72.8327 287.2815 15.08835790 74638,6917.893,95.438,540.705,538.811,0.0
52643.0,STARLINK-3963,PAYLOAD,2023-09-15 06:49:55,15.08824461,7.28e-05,53.2197,8.1047,87.0616,273.0459,0.00011316,1.513e-05,0.0,0 STARLINK-3963,1 52643U 22052AX  23258.28467148  .00001513  00000-0  11316-3 0  9996,2 52643  53.2197   8.1047 0000728  87.0616 273.0459 15.08824461 74677,6917.928,95.439,540.297,539.289,0.0
52643.0,STARLINK-3963,PAYLOAD,2023-09-15 13:11:27,15.08843919,0.0001361,53.2179,6.9139,69.3788,290.735,0.00012134,1.644e-05,0.0,0 STARLINK-3963,1 52643U 22052AX  23258.54962041  .00001644  00000-0  12134-3 0  9991,2 52643  53.2179   6.9139 0001361  69.3788 290.7350 15.08843919 74330,6917.868,95.437,540.675,538.792,0.0
52643.0,STARLINK-3963,PAYLOAD,2023-09-15 17:57:37,15.08851988,0.0001405,53.2183,6.0214,68.4874,291.6268,0.0010952,0.00017191,0.0,0 STARLINK-3963,1 52643U 22052AX  23258.74834595  .00017191  00000-0  10952-2 0  9994,2 52643  53.2183   6.0214 0001405  68.4874 291.6268 15.08851988 74743,6917.844,95.437,540.681,538.737,0.0
52643.0,STARLINK-3963,PAYLOAD,2023-09-15 19:33:00,15.08864959,0.0001392,53.2178,5.7239,65.3262,294.7875,0.0014273,0.00022516,0.0,0 STARLINK-3963,1 52643U 22052AX  23258.81458408  .00022516  00000-0  14273-2 0  9994,2 52643  53.2178   5.7239 0001392  65.3262 294.7875 15.08864959 74753,6917.804,95.436,540.632,538.706,0.0
52643.0,STARLINK-3963,PAYLOAD,2023-09-16 13:02:14,15.08853038,0.000141,53.2174,2.4542,59.3099,300.8032,0.0011537,0.00018127,0.0,0 STARLINK-3963,1 52643U 22052AX  23259.54322479  .00018127  00000-0  11537-2 0  9996,2 52643  53.2174   2.4542 0001410  59.3099 300.8032 15.08853038 74482,6917.841,95.437,540.681,538.73,0.0
52643.0,STARLINK-3963,PAYLOAD,2023-09-16 16:13:00,15.08858598,0.0001404,53.2174,1.8595,60.0266,300.0865,0.0014763,0.00023297,0.0,0 STARLINK-3963,1 52643U 22052AX  23259.67570322  .00023297  00000-0  14763-2 0  9990,2 52643  53.2174   1.8595 0001404  60.0266 300.0865 15.08858598 74887,6917.824,95.436,540.66,538.717,0.0
52643.0,STARLINK-3963,PAYLOAD,2023-09-17 00:09:56,15.08854285,0.0001222,53.2173,0.3732,73.403,286.7096,0.00056043,8.646e-05,0.0,0 STARLINK-3963,1 52643U 22052AX  23260.00690299  .00008646  00000-0  56043-3 0  9994,2 52643  53.2173   0.3732 0001222  73.4030 286.7096 15.08854285 74939,6917.837,95.437,540.547,538.856,0.0
52643.0,STARLINK-3963,PAYLOAD,2023-09-17 12:53:01,15.08855363,0.0001483,53.2178,357.9936,83.5414,276.5747,0.00049467,7.597e-05,0.0,0 STARLINK-3963,1 52643U 22052AX  23260.53682170  .00007597  00000-0  49467-3 0  9997,2 52643  53.2178 357.9936 0001483  83.5414 276.5747 15.08855363 74633,6917.833,95.437,540.724,538.673,0.0
52643.0,STARLINK-3963,PAYLOAD,2023-09-18 00:00:43,15.08847478,0.0001205,53.2182,355.9114,92.3565,267.7565,0.00053373,8.218e-05,0.0,0 STARLINK-3963,1 52643U 22052AX  23261.00050155  .00008218  00000-0  53373-3 0  9994,2 52643  53.2182 355.9114 0001205  92.3565 267.7565 15.08847478 75089,6917.858,95.437,540.556,538.889,0.0
52643.0,STARLINK-3963,PAYLOAD,2023-09-18 09:33:02,15.08845032,0.0001326,53.218,354.1285,89.7802,270.3342,0.00050747,7.799e-05,0.0,0 STARLINK-3963,1 52643U 22052AX  23261.39794305  .00007799  00000-0  50747-3 0  9993,2 52643  53.2180 354.1285 0001326  89.7802 270.3342 15.08845032 75149,6917.865,95.437,540.647,538.813,0.0
52643.0,STARLINK-3963,PAYLOAD,2023-09-18 12:43:48,15.08848342,0.0001447,53.2183,353.5338,92.8886,267.2272,0.00053459,8.232e-05,0.0,0 STARLINK-3963,1 52643U 22052AX  23261.53042246  .00008232  00000-0  53459-3 0  9995,2 52643  53.2183 353.5338 0001447  92.8886 267.2272 15.08848342 74788,6917.855,95.437,540.721,538.719,0.0
52643.0,STARLINK-3963,PAYLOAD,2023-09-18 17:29:57,15.08860049,0.0001412,53.2184,352.6416,103.7912,256.3238,0.00099938,0.00015662,0.0,0 STARLINK-3963,1 52643U 22052AX  23261.72913927  .00015662  00000-0  99938-3 0  9996,2 52643  53.2184 352.6416 0001412 103.7912 256.3238 15.08860049 74813,6917.819,95.436,540.661,538.707,0.0
52643.0,STARLINK-3963,PAYLOAD,2023-09-19 09:23:48,15.08861226,0.0001178,53.2181,349.6686,80.6803,279.4323,0.00097935,0.00015342,0.0,0 STARLINK-3963,1 52643U 22052AX  23262.39153753  .00015342  00000-0  97935-3 0  9993,2 52643  53.2181 349.6686 0001178  80.6803 279.4323 15.08861226 75298,6917.816,95.436,540.495,538.866,0.0
52643.0,STARLINK-3963,PAYLOAD,2023-09-19 17:20:43,15.08887902,0.00014,53.218,348.181,89.0688,271.0465,0.0017664,0.00027973,0.0,0 STARLINK-3963,1 52643U 22052AX  23262.72272806  .00027973  00000-0  17664-2 0  9994,2 52643  53.2180 348.1810 0001400  89.0688 271.0465 15.08887902 75342,6917.734,95.435,540.567,538.63,0.0
52643.0,STARLINK-3963,PAYLOAD,2023-09-20 09:14:36,15.08817937,0.0001557,53.2184,345.2066,101.6705,258.4462,0.00049692,7.625e-05,0.0,0 STARLINK-3963,1 52643U 22052AX  23263.38514438  .00007625  00000-0  49692-3 0  9996,2 52643  53.2184 345.2066 0001557 101.6705 258.4462 15.08817937 75449,6917.948,95.439,540.89,538.736,0.0
52643.0,STARLINK-3963,PAYLOAD,2023-09-20 12:25:23,15.08808345,0.0001447,53.2184,344.6147,67.9312,292.1833,0.00084089,0.00013109,0.0,0 STARLINK-3963,1 52643U 22052AX  23263.51763019  .00013109  00000-0  84089-3 0  9995,2 52643  53.2184 344.6147 0001447  67.9312 292.1833 15.08808345 75088,6917.977,95.44,540.843,538.841,0.0
52643.0,STARLINK-3963,PAYLOAD,2023-09-20 17:11:32,15.08822141,0.0001372,53.2181,343.7192,71.5899,288.5243,0.00073979,0.000115,0.0,0 STARLINK-3963,1 52643U 22052AX  23263.71635176  .00011500  00000-0  73979-3 0  9998,2 52643  53.2181 343.7192 0001372  71.5899 288.5243 15.08822141 75111,6917.935,95.439,540.749,538.851,0.0
52643.0,STARLINK-3963,PAYLOAD,2023-09-21 10:40:47,15.08855446,0.0001512,53.2176,340.4493,59.9926,300.1216,0.0013807,0.00021763,0.0,0 STARLINK-3963,1 52643U 22052AX  23264.44499268  .00021763  00000-0  13807-2 0  9994,2 52643  53.2176 340.4493 0001512  59.9926 300.1216 15.08855446 75609,6917.833,95.437,540.744,538.652,0.0
52643.0,STARLINK-3963,PAYLOAD,2023-09-21 12:16:10,15.08857809,0.0001536,53.2177,340.1521,60.127,299.9875,0.0013031,0.00020522,0.0,0 STARLINK-3963,1 52643U 22052AX  23264.51123185  .00020522  00000-0  13031-2 0  9995,2 52643  53.2177 340.1521 0001536  60.1270 299.9875 15.08857809 75231,6917.826,95.436,540.754,538.628,0.0
52643.0,STARLINK-3963,PAYLOAD,2023-09-21 21:48:29,15.08846486,0.000119,53.2183,338.3675,75.3434,284.769,0.00014788,2.067e-05,0.0,0 STARLINK-3963,1 52643U 22052AX  23264.90866975  .00002067  00000-0  14788-3 0  9994,2 52643  53.2183 338.3675 0001190  75.3434 284.7690 15.08846486 75295,6917.861,95.437,540.549,538.902,0.0
52643.0,STARLINK-3963,PAYLOAD,2023-09-22 10:31:34,15.0885496,0.0001458,53.2173,335.989,70.5832,289.5317,0.0013264,0.00020893,0.0,0 STARLINK-3963,1 52643U 22052AX  23265.43858849  .00020893  00000-0  13264-2 0  9998,2 52643  53.2173 335.9890 0001458  70.5832 289.5317 15.08854960 75376,6917.835,95.437,540.708,538.691,0.0
52643.0,STARLINK-3963,PAYLOAD,2023-09-22 15:17:43,15.08864258,0.0001466,53.2171,335.0971,67.7465,292.3682,0.0016813,0.00026589,0.0,0 STARLINK-3963,1 52643U 22052AX  23265.63730613  .00026589  00000-0  16813-2 0  9999,2 52643  53.2171 335.0971 0001466  67.7465 292.3682 15.08864258 75787,6917.806,95.436,540.685,538.657,0.0
52643.0,STARLINK-3963,PAYLOAD,2023-09-22 21:39:15,15.08851393,0.000139,53.2172,333.9073,79.2763,280.8385,0.00085341,0.00013324,0.0,0 STARLINK-3963,1 52643U 22052AX  23265.90226742  .00013324  00000-0  85341-3 0  9998,2 52643  53.2172 333.9073 0001390  79.2763 280.8385 15.08851393 75444,6917.846,95.437,540.672,538.749,0.0
52643.0,STARLINK-3963,PAYLOAD,2023-09-23 11:57:43,15.08853495,0.0001549,53.2174,331.2302,75.6963,284.4201,0.00060266,9.32e-05,0.0,0 STARLINK-3963,1 52643U 22052AX  23266.49842561  .00009320  00000-0  60266-3 0  9996,2 52643  53.2174 331.2302 0001549  75.6963 284.4201 15.08853495 75914,6917.839,95.437,540.776,538.633,0.0
52643.0,STARLINK-3963,PAYLOAD,2023-09-23 13:33:07,15.08856021,0.0001599,53.2176,330.9326,79.162,280.9552,0.00077577,0.00012085,0.0,0 STARLINK-3963,1 52643U 22052AX  23266.56466512  .00012085  00000-0  77577-3 0  9997,2 52643  53.2176 330.9326 0001599  79.1620 280.9552 15.08856021 75549,6917.831,95.437,540.803,538.59,0.0
